GLOBALSTAR M023         
1 25621U 99004A   25266.07432751 -.00000044  00000+0  33483-3 0  9990
2 25621  52.0089 115.3720 0010051 347.7449 178.3422 12.62506851228090
GLOBALSTAR M040         
1 25622U 99004B   25265.89566264 -.00000029  00000+0  41889-3 0  9999
2 25622  51.9901 120.2154 0000144 143.4013 229.8415 12.62017814227592
GLOBALSTAR M036         
1 25623U 99004C   25266.16655512 -.00000016  00000+0  97778-3 0  9990
2 25623  51.9998 342.0680 0010596 236.3263 140.0858 11.86609323190612
GLOBALSTAR M038         
1 25624U 99004D   25266.16455819 -.00000044  00000+0  41688-3 0  9999
2 25624  51.9961 149.4076 0001026 268.6553 259.3696 12.32532342214450
GLOBALSTAR M022         
1 25649U 99012A   25266.10041958 -.00000077  00000+0  11670-3 0  9998
2 25649  52.0071  24.7259 0002612  23.3321 147.5551 12.02502611188158
GLOBALSTAR M041         
1 25650U 99012B   25266.02781282 -.00000078  00000+0  96856-4 0  9993
2 25650  52.0009 269.3617 0001426 143.5971 216.4963 11.96682796189995
GLOBALSTAR M046         
1 25651U 99012C   25265.89299990 -.00000156  00000+0 -74159-3 0  9997
2 25651  52.0078 331.8617 0002425  94.9404  76.5507 12.09413105195488
GLOBALSTAR M037         
1 25652U 99012D   25266.28184975 -.00000106  00000+0 -10969-4 0  9993
2 25652  51.9988 245.3233 0002398  45.5091  61.2530 12.62451318223669
